FLOCK 4G-27             
1 62641U 25009AJ  26068.75406453  .00012587  00000+0  47455-3 0  9991
2 62641  97.3976 150.8631 0000756 322.4974  37.6212 15.27199247 63710
STARLINK-34047          
1 63821U 25092T   26068.30092785  .00030371  00000+0  11083-2 0  9992
2 63821  42.9956 174.8758 0000910 329.5437  30.5361 15.27591247 48609
